{"fetched_at":"2026-07-20T07:40:17.151Z","source":"https://celestrak.org/NORAD/elements/gp.php?GROUP=kuiper&FORMAT=JSON","constellation":"kuiper","records":[{"OBJECT_NAME":"KUIPER-00279","OBJECT_ID":"2026-030AH","EPOCH":"2026-07-19T13:48:32.205600","CLASSIFICATION_TYPE":"U","MEAN_MOTION":14.79946113,"ECCENTRICITY":0.0000831,"INCLINATION":51.9039,"RA_OF_ASC_NODE":314.9408,"ARG_OF_PERICENTER":192.2498,"MEAN_ANOMALY":167.8444,"EPHEMERIS_TYPE":0,"NORAD_CAT_ID":67795,"ELEMENT_SET_NO":999,"REV_AT_EPOCH":2519,"BSTAR":0.00025187,"MEAN_MOTION_DOT":0.000017,"MEAN_MOTION_DDOT":0},{"OBJECT_NAME":"KUIPER-00131","OBJECT_ID":"2026-072A","EPOCH":"2026-07-19T18:34:42.953664","CLASSIFICATION_TYPE":"U","MEAN_MOTION":14.79938422,"ECCENTRICITY":0.0000694,"INCLINATION":51.9018,"RA_OF_ASC_NODE":51.5501,"ARG_OF_PERICENTER":113.5855,"MEAN_ANOMALY":246.518,"EPHEMERIS_TYPE":0,"NORAD_CAT_ID":68573,"ELEMENT_SET_NO":999,"REV_AT_EPOCH":1594,"BSTAR":0.00021028,"MEAN_MOTION_DOT":0.00001382,"MEAN_MOTION_DDOT":0},{"OBJECT_NAME":"KUIPER-00189","OBJECT_ID":"2026-072B","EPOCH":"2026-07-19T19:19:27.984000","CLASSIFICATION_TYPE":"U","MEAN_MOTION":14.7992913,"ECCENTRICITY":0.00008,"INCLINATION":51.9003,"RA_OF_ASC_NODE":53.8972,"ARG_OF_PERICENTER":115.4247,"MEAN_ANOMALY":244.6798,"EPHEMERIS_TYPE":0,"NORAD_CAT_ID":68574,"ELEMENT_SET_NO":999,"REV_AT_EPOCH":1591,"BSTAR":0.00022107,"MEAN_MOTION_DOT":0.00001464,"MEAN_MOTION_DDOT":0},{"OBJECT_NAME":"KUIPER-00192","OBJECT_ID":"2026-072C","EPOCH":"2026-07-19T20:15:50.349600","CLASSIFICATION_TYPE":"U","MEAN_MOTION":14.79939347,"ECCENTRICITY":0.0000844,"INCLINATION":51.9014,"RA_OF_ASC_NODE":48.7367,"ARG_OF_PERICENTER":119.91,"MEAN_ANOMALY":240.1947,"EPHEMERIS_TYPE":0,"NORAD_CAT_ID":68575,"ELEMENT_SET_NO":999,"REV_AT_EPOCH":1599,"BSTAR":0.00022878,"MEAN_MOTION_DOT":0.00001523,"MEAN_MOTION_DDOT":0},{"OBJECT_NAME":"KUIPER-00193","OBJECT_ID":"2026-072D","EPOCH":"2026-07-19T18:54:09.486720","CLASSIFICATION_TYPE":"U","MEAN_MOTION":14.80014003,"ECCENTRICITY":0.0001785,"INCLINATION":51.9044,"RA_OF_ASC_NODE":39.0058,"ARG_OF_PERICENTER":340.3338,"MEAN_ANOMALY":19.7555,"EPHEMERIS_TYPE":0,"NORAD_CAT_ID":68576,"ELEMENT_SET_NO":999,"REV_AT_EPOCH":1612,"BSTAR":-0.0023072,"MEAN_MOTION_DOT":-0.00017798,"MEAN_MOTION_DDOT":0},{"OBJECT_NAME":"KUIPER-00194","OBJECT_ID":"2026-072E","EPOCH":"2026-07-19T21:08:19.264992","CLASSIFICATION_TYPE":"U","MEAN_MOTION":14.7992635,"ECCENTRICITY":0.000051,"INCLINATION":51.903,"RA_OF_ASC_NODE":46.0894,"ARG_OF_PERICENTER":136.6393,"MEAN_ANOMALY":223.4609,"EPHEMERIS_TYPE":0,"NORAD_CAT_ID":68577,"ELEMENT_SET_NO":999,"REV_AT_EPOCH":1603,"BSTAR":0.00023568,"MEAN_MOTION_DOT":0.00001576,"MEAN_MOTION_DDOT":0},{"OBJECT_NAME":"KUIPER-00229","OBJECT_ID":"2026-072F","EPOCH":"2026-07-19T19:23:19.760640","CLASSIFICATION_TYPE":"U","MEAN_MOTION":14.79940871,"ECCENTRICITY":0.0000837,"INCLINATION":51.9025,"RA_OF_ASC_NODE":51.3985,"ARG_OF_PERICENTER":120.921,"MEAN_ANOMALY":239.1835,"EPHEMERIS_TYPE":0,"NORAD_CAT_ID":68578,"ELEMENT_SET_NO":999,"REV_AT_EPOCH":1595,"BSTAR":0.00021673,"MEAN_MOTION_DOT":0.00001432,"MEAN_MOTION_DDOT":0},{"OBJECT_NAME":"KUIPER-00230","OBJECT_ID":"2026-072G","EPOCH":"2026-07-19T20:46:49.427040","CLASSIFICATION_TYPE":"U","MEAN_MOTION":15.38659021,"ECCENTRICITY":0.0002615,"INCLINATION":51.8769,"RA_OF_ASC_NODE":18.4784,"ARG_OF_PERICENTER":129.3689,"MEAN_ANOMALY":230.753,"EPHEMERIS_TYPE":0,"NORAD_CAT_ID":68579,"ELEMENT_SET_NO":999,"REV_AT_EPOCH":1641,"BSTAR":0.00049612,"MEAN_MOTION_DOT":0.000189,"MEAN_MOTION_DDOT":0},{"OBJECT_NAME":"KUIPER-00231","OBJECT_ID":"2026-072H","EPOCH":"2026-07-19T20:00:01.999008","CLASSIFICATION_TYPE":"U","MEAN_MOTION":14.84644053,"ECCENTRICITY":0.0004405,"INCLINATION":51.8984,"RA_OF_ASC_NODE":23.6669,"ARG_OF_PERICENTER":353.9627,"MEAN_ANOMALY":95.0279,"EPHEMERIS_TYPE":0,"NORAD_CAT_ID":68580,"ELEMENT_SET_NO":999,"REV_AT_EPOCH":471,"BSTAR":-0.0065301,"MEAN_MOTION_DOT":-0.00055543,"MEAN_MOTION_DDOT":0},{"OBJECT_NAME":"KUIPER-00234","OBJECT_ID":"2026-072J","EPOCH":"2026-07-19T20:00:01.999008","CLASSIFICATION_TYPE":"U","MEAN_MOTION":14.79899597,"ECCENTRICITY":0.000015,"INCLINATION":51.8998,"RA_OF_ASC_NODE":46.2775,"ARG_OF_PERICENTER":130.5078,"MEAN_ANOMALY":156.7279,"EPHEMERIS_TYPE":0,"NORAD_CAT_ID":68581,"ELEMENT_SET_NO":999,"REV_AT_EPOCH":438,"BSTAR":-0.0021019,"MEAN_MOTION_DOT":-0.00016193,"MEAN_MOTION_DDOT":0},{"OBJECT_NAME":"KUIPER-00236","OBJECT_ID":"2026-072K","EPOCH":"2026-07-19T18:12:50.829696","CLASSIFICATION_TYPE":"U","MEAN_MOTION":15.38167173,"ECCENTRICITY":0.0002878,"INCLINATION":51.8776,"RA_OF_ASC_NODE":19.26,"ARG_OF_PERICENTER":139.8551,"MEAN_ANOMALY":220.2649,"EPHEMERIS_TYPE":0,"NORAD_CAT_ID":68582,"ELEMENT_SET_NO":999,"REV_AT_EPOCH":1639,"BSTAR":0.00037411,"MEAN_MOTION_DOT":0.00013915,"MEAN_MOTION_DDOT":0},{"OBJECT_NAME":"KUIPER-00244","OBJECT_ID":"2026-072L","EPOCH":"2026-07-19T18:09:23.690016","CLASSIFICATION_TYPE":"U","MEAN_MOTION":14.79940194,"ECCENTRICITY":0.0001393,"INCLINATION":51.9011,"RA_OF_ASC_NODE":36.6391,"ARG_OF_PERICENTER":131.1778,"MEAN_ANOMALY":228.9305,"EPHEMERIS_TYPE":0,"NORAD_CAT_ID":68583,"ELEMENT_SET_NO":999,"REV_AT_EPOCH":1615,"BSTAR":0.00021242,"MEAN_MOTION_DOT":0.00001399,"MEAN_MOTION_DDOT":0},{"OBJECT_NAME":"KUIPER-00253","OBJECT_ID":"2026-072M","EPOCH":"2026-07-19T18:05:31.744032","CLASSIFICATION_TYPE":"U","MEAN_MOTION":14.79928711,"ECCENTRICITY":0.0000652,"INCLINATION":51.9047,"RA_OF_ASC_NODE":39.1568,"ARG_OF_PERICENTER":110.3996,"MEAN_ANOMALY":249.7036,"EPHEMERIS_TYPE":0,"NORAD_CAT_ID":68584,"ELEMENT_SET_NO":999,"REV_AT_EPOCH":1611,"BSTAR":0.00021076,"MEAN_MOTION_DOT":0.00001386,"MEAN_MOTION_DDOT":0},{"OBJECT_NAME":"KUIPER-00254","OBJECT_ID":"2026-072N","EPOCH":"2026-07-19T18:50:15.796320","CLASSIFICATION_TYPE":"U","MEAN_MOTION":14.7993327,"ECCENTRICITY":0.000182,"INCLINATION":51.9044,"RA_OF_ASC_NODE":41.5182,"ARG_OF_PERICENTER":124.0262,"MEAN_ANOMALY":236.0873,"EPHEMERIS_TYPE":0,"NORAD_CAT_ID":68585,"ELEMENT_SET_NO":999,"REV_AT_EPOCH":1608,"BSTAR":0.00022578,"MEAN_MOTION_DOT":0.000015,"MEAN_MOTION_DDOT":0},{"OBJECT_NAME":"KUIPER-00263","OBJECT_ID":"2026-072P","EPOCH":"2026-07-19T20:00:01.999008","CLASSIFICATION_TYPE":"U","MEAN_MOTION":14.79833018,"ECCENTRICITY":0.0001334,"INCLINATION":51.9025,"RA_OF_ASC_NODE":26.3805,"ARG_OF_PERICENTER":91.4287,"MEAN_ANOMALY":80.4415,"EPHEMERIS_TYPE":0,"NORAD_CAT_ID":68586,"ELEMENT_SET_NO":999,"REV_AT_EPOCH":576,"BSTAR":-0.001312,"MEAN_MOTION_DOT":-0.00010184,"MEAN_MOTION_DDOT":0},{"OBJECT_NAME":"KUIPER-00269","OBJECT_ID":"2026-072Q","EPOCH":"2026-07-19T19:09:41.912064","CLASSIFICATION_TYPE":"U","MEAN_MOTION":14.79955982,"ECCENTRICITY":0.0000428,"INCLINATION":51.9016,"RA_OF_ASC_NODE":28.9516,"ARG_OF_PERICENTER":80.69,"MEAN_ANOMALY":279.4111,"EPHEMERIS_TYPE":0,"NORAD_CAT_ID":68587,"ELEMENT_SET_NO":999,"REV_AT_EPOCH":1626,"BSTAR":0.00020999,"MEAN_MOTION_DOT":0.00001381,"MEAN_MOTION_DDOT":0}]}
