KUIPER-00279            
1 67795U 26030AH  26200.57537275  .00001700  00000+0  25187-3 0  9999
2 67795  51.9039 314.9408 0000831 192.2498 167.8444 14.79946113 25195
KUIPER-00131            
1 68573U 26072A   26200.77410826  .00001382  00000+0  21028-3 0  9990
2 68573  51.9018  51.5501 0000694 113.5855 246.5180 14.79938422 15943
KUIPER-00189            
1 68574U 26072B   26200.80518500  .00001464  00000+0  22107-3 0  9993
2 68574  51.9003  53.8972 0000800 115.4247 244.6798 14.79929130 15917
KUIPER-00192            
1 68575U 26072C   26200.84433275  .00001523  00000+0  22878-3 0  9994
2 68575  51.9014  48.7367 0000844 119.9100 240.1947 14.79939347 15992
KUIPER-00193            
1 68576U 26072D   26200.78760980 -.00017798  00000+0 -23072-2 0  9993
2 68576  51.9044  39.0058 0001785 340.3338  19.7555 14.80014003 16120
KUIPER-00194            
1 68577U 26072E   26200.88077853  .00001576  00000+0  23568-3 0  9991
2 68577  51.9030  46.0894 0000510 136.6393 223.4609 14.79926350 16033
KUIPER-00229            
1 68578U 26072F   26200.80786760  .00001432  00000+0  21673-3 0  9994
2 68578  51.9025  51.3985 0000837 120.9210 239.1835 14.79940871 15953
KUIPER-00230            
1 68579U 26072G   26200.86584985  .00018900  00000+0  49612-3 0  9997
2 68579  51.8769  18.4784 0002615 129.3689 230.7530 15.38659021 16419
KUIPER-00231            
1 68580U 26072H   26200.83335647 -.00055543  00000+0 -65301-2 0  9993
2 68580  51.8984  23.6669 0004405 353.9627  95.0279 14.84644053  4717
KUIPER-00234            
1 68581U 26072J   26200.83335647 -.00016193  00000+0 -21019-2 0  9990
2 68581  51.8998  46.2775 0000150 130.5078 156.7279 14.79899597  4381
KUIPER-00236            
1 68582U 26072K   26200.75892164  .00013915  00000+0  37411-3 0  9995
2 68582  51.8776  19.2600 0002878 139.8551 220.2649 15.38167173 16396
KUIPER-00244            
1 68583U 26072L   26200.75652419  .00001399  00000+0  21242-3 0  9991
2 68583  51.9011  36.6391 0001393 131.1778 228.9305 14.79940194 16151
KUIPER-00253            
1 68584U 26072M   26200.75383963  .00001386  00000+0  21076-3 0  9998
2 68584  51.9047  39.1568 0000652 110.3996 249.7036 14.79928711 16112
KUIPER-00254            
1 68585U 26072N   26200.78490505  .00001500  00000+0  22578-3 0  9999
2 68585  51.9044  41.5182 0001820 124.0262 236.0873 14.79933270 16085
KUIPER-00263            
1 68586U 26072P   26200.83335647 -.00010184  00000+0 -13120-2 0  9993
2 68586  51.9025  26.3805 0001334  91.4287  80.4415 14.79833018  5767
KUIPER-00269            
1 68587U 26072Q   26200.79840176  .00001381  00000+0  20999-3 0  9997
2 68587  51.9016  28.9516 0000428  80.6900 279.4111 14.79955982 16265
